[{"OBJECT_NAME":"JILIN-1 GAOFEN 03D50","OBJECT_ID":"2022-167J","EPOCH":"2026-03-09T22:35:59.947584","MEAN_MOTION":15.32279726,"ECCENTRICITY":0.00065764,"INCLINATION":97.6731,"RA_OF_ASC_NODE":232.9458,"ARG_OF_PERICENTER":101.1473,"MEAN_ANOMALY":259.0507,"EPHEMERIS_TYPE":0,"CLASSIFICATION_TYPE":"U","NORAD_CAT_ID":54690,"ELEMENT_SET_NO":999,"REV_AT_EPOCH":18014,"BSTAR":0.00049467973,"MEAN_MOTION_DOT":0.00015359,"MEAN_MOTION_DDOT":0},{"OBJECT_NAME":"STARLINK-35513","OBJECT_ID":"2025-225W","EPOCH":"2026-03-09T13:04:57.470304","MEAN_MOTION":15.30176238,"ECCENTRICITY":0.00010752,"INCLINATION":53.1585,"RA_OF_ASC_NODE":166.5137,"ARG_OF_PERICENTER":81.9087,"MEAN_ANOMALY":278.2036,"EPHEMERIS_TYPE":0,"CLASSIFICATION_TYPE":"U","NORAD_CAT_ID":65930,"ELEMENT_SET_NO":999,"REV_AT_EPOCH":2438,"BSTAR":0.00084879455,"MEAN_MOTION_DOT":0.00024845,"MEAN_MOTION_DDOT":0}]
